{
  "type": "Feature",
  "properties": {
    "id": "trail-baepi",
    "nome": "Pico do Baepi",
    "descricao": "Trilha de montanha até o Pico do Baepi, com vista panorâmica de 360 graus da ilha.",
    "dificuldade": "dificil",
    "distancia": 6.2,
    "duracao": 240
  },
  "geometry": {
    "type": "LineString",
    "coordinates": [
      [-45.3767, -23.8767],
      [-45.3765, -23.8762],
      [-45.3762, -23.8755],
      [-45.3758, -23.8748],
      [-45.3755, -23.8740],
      [-45.3750, -23.8732],
      [-45.3748, -23.8725],
      [-45.3745, -23.8718],
      [-45.3740, -23.8710],
      [-45.3738, -23.8702],
      [-45.3735, -23.8695],
      [-45.3730, -23.8688],
      [-45.3728, -23.8680],
      [-45.3725, -23.8675],
      [-45.3720, -23.8672],
      [-45.3715, -23.8670],
      [-45.3710, -23.8668],
      [-45.3705, -23.8667],
      [-45.3700, -23.8667],
      [-45.3695, -23.8667],
      [-45.3690, -23.8665],
      [-45.3685, -23.8663],
      [-45.3680, -23.8662],
      [-45.3675, -23.8663],
      [-45.3670, -23.8665],
      [-45.3667, -23.8667]
    ]
  }
}