{
  "type": "Feature",
  "properties": {
    "id": "trail-bonete",
    "nome": "Trilha do Bonete",
    "descricao": "Trilha costeira que leva à Praia do Bonete, com vista para o oceano e mata atlântica preservada.",
    "dificuldade": "moderada",
    "distancia": 8.5,
    "duracao": 180
  },
  "geometry": {
    "type": "LineString",
    "coordinates": [
      [-45.3867, -23.8867],
      [-45.3870, -23.8872],
      [-45.3875, -23.8880],
      [-45.3882, -23.8888],
      [-45.3885, -23.8895],
      [-45.3890, -23.8902],
      [-45.3898, -23.8912],
      [-45.3905, -23.8920],
      [-45.3912, -23.8930],
      [-45.3918, -23.8938],
      [-45.3928, -23.8948],
      [-45.3935, -23.8955],
      [-45.3945, -23.8965],
      [-45.3952, -23.8972],
      [-45.3962, -23.8982],
      [-45.3970, -23.8990],
      [-45.3978, -23.8998],
      [-45.3985, -23.9005],
      [-45.3992, -23.9015],
      [-45.4000, -23.9022],
      [-45.4005, -23.9030],
      [-45.4012, -23.9038],
      [-45.4018, -23.9042],
      [-45.4025, -23.9048],
      [-45.4032, -23.9052],
      [-45.4040, -23.9058],
      [-45.4048, -23.9060],
      [-45.4055, -23.9063],
      [-45.4067, -23.9067]
    ]
  }
}