{
  "type": "Feature",
  "properties": {
    "id": "trail-castelhanos",
    "nome": "Estrada Parque Castelhanos",
    "descricao": "Trilha histórica que segue pela estrada antiga até a Praia de Castelhanos, passando por ruínas e mata densa.",
    "dificuldade": "facil",
    "distancia": 12.0,
    "duracao": 150
  },
  "geometry": {
    "type": "LineString",
    "coordinates": [
      [-45.3967, -23.8967],
      [-45.3970, -23.8972],
      [-45.3975, -23.8978],
      [-45.3980, -23.8985],
      [-45.3985, -23.8990],
      [-45.3990, -23.8998],
      [-45.3995, -23.9005],
      [-45.4000, -23.9012],
      [-45.4005, -23.9020],
      [-45.4012, -23.9028],
      [-45.4018, -23.9035],
      [-45.4022, -23.9042],
      [-45.4028, -23.9050],
      [-45.4035, -23.9058],
      [-45.4042, -23.9065],
      [-45.4048, -23.9072],
      [-45.4055, -23.9080],
      [-45.4062, -23.9088],
      [-45.4068, -23.9095],
      [-45.4075, -23.9102],
      [-45.4080, -23.9108],
      [-45.4088, -23.9115],
      [-45.4095, -23.9122],
      [-45.4100, -23.9128],
      [-45.4108, -23.9135],
      [-45.4115, -23.9140],
      [-45.4120, -23.9145],
      [-45.4128, -23.9150],
      [-45.4135, -23.9155],
      [-45.4142, -23.9158],
      [-45.4150, -23.9162],
      [-45.4158, -23.9165],
      [-45.4167, -23.9167]
    ]
  }
}